[
    {
        "Altitude(m)": 702678.9716615267,
        "Argument of Periapsis(deg)": 0.0022780242373254137,
        "Eccentricity": 0.0,
        "Inclination(deg)": 45.0,
        "Latitude(deg)": 13.101821286281307,
        "Longitude(deg)": -61.74530203505557,
        "Mean Anomaly(deg)": 18.67024332949616,
        "RAAN(deg)": 24.997849611708357,
        "Satellite Name": "Constellation 1 111",
        "Satellite Number": 111,
        "Semi-Major Axis(m)": 7083131.272910544,
        "Time(s)": 38
    },
    {
        "Altitude(m)": 702679.552569796,
        "Argument of Periapsis(deg)": 0.002337972243570819,
        "Eccentricity": 0.0,
        "Inclination(deg)": 45.0,
        "Latitude(deg)": 13.143852376978975,
        "Longitude(deg)": -61.70422454371005,
        "Mean Anomaly(deg)": 18.730944469746067,
        "RAAN(deg)": 24.99779302254279,
        "Satellite Name": "Constellation 1 111",
        "Satellite Number": 111,
        "Semi-Major Axis(m)": 7083131.272910544,
        "Time(s)": 39
    },
    {
        "Altitude(m)": 702680.1518055843,
        "Argument of Periapsis(deg)": 0.0023979202498162246,
        "Eccentricity": 0.0,
        "Inclination(deg)": 45.0,
        "Latitude(deg)": 13.185875422425902,
        "Longitude(deg)": -61.66313164267174,
        "Mean Anomaly(deg)": 18.791645609995964,
        "RAAN(deg)": 24.99773643337722,
        "Satellite Name": "Constellation 1 111",
        "Satellite Number": 111,
        "Semi-Major Axis(m)": 7083131.272910544,
        "Time(s)": 40
    },
    {
        "Altitude(m)": 702680.7693481615,
        "Argument of Periapsis(deg)": 0.00245786825606163,
        "Eccentricity": 0.0,
        "Inclination(deg)": 45.0,
        "Latitude(deg)": 13.227890393156972,
        "Longitude(deg)": -61.6220232787669,
        "Mean Anomaly(deg)": 18.852346750245864,
        "RAAN(deg)": 24.997679844211653,
        "Satellite Name": "Constellation 1 111",
        "Satellite Number": 111,
        "Semi-Major Axis(m)": 7083131.272910544,
        "Time(s)": 41
    },
    {
        "Altitude(m)": 702681.4051767145,
        "Argument of Periapsis(deg)": 0.002517816262307036,
        "Eccentricity": 0.0,
        "Inclination(deg)": 45.0,
        "Latitude(deg)": 13.269897259677016,
        "Longitude(deg)": -61.58089939879303,
        "Mean Anomaly(deg)": 18.91304789049576,
        "RAAN(deg)": 24.99762325504608,
        "Satellite Name": "Constellation 1 111",
        "Satellite Number": 111,
        "Semi-Major Axis(m)": 7083131.272910544,
        "Time(s)": 42
    },
    {
        "Altitude(m)": 702682.05927037,
        "Argument of Periapsis(deg)": 0.0025777642685524413,
        "Eccentricity": 0.0,
        "Inclination(deg)": 45.0,
        "Latitude(deg)": 13.311895992460672,
        "Longitude(deg)": -61.53975994951901,
        "Mean Anomaly(deg)": 18.973749030745658,
        "RAAN(deg)": 24.997566665880512,
        "Satellite Name": "Constellation 1 111",
        "Satellite Number": 111,
        "Semi-Major Axis(m)": 7083131.272910544,
        "Time(s)": 43
    },
    {
        "Altitude(m)": 702682.7316081579,
        "Argument of Periapsis(deg)": 0.002637712274797847,
        "Eccentricity": 0.0,
        "Inclination(deg)": 45.0,
        "Latitude(deg)": 13.353886561952189,
        "Longitude(deg)": -61.498605045781865,
        "Mean Anomaly(deg)": 19.034450170995562,
        "RAAN(deg)": 24.997510076714942,
        "Satellite Name": "Constellation 1 111",
        "Satellite Number": 111,
        "Semi-Major Axis(m)": 7083131.272910544,
        "Time(s)": 44
    },
    {
        "Altitude(m)": 702683.4221690525,
        "Argument of Periapsis(deg)": 0.0026976602810432526,
        "Eccentricity": 0.0,
        "Inclination(deg)": 45.0,
        "Latitude(deg)": 13.395868938565801,
        "Longitude(deg)": -61.45743429809886,
        "Mean Anomaly(deg)": 19.095151311245456,
        "RAAN(deg)": 24.997453487549375,
        "Satellite Name": "Constellation 1 111",
        "Satellite Number": 111,
        "Semi-Major Axis(m)": 7083131.272910544,
        "Time(s)": 45
    },
    {
        "Altitude(m)": 702684.1309319384,
        "Argument of Periapsis(deg)": 0.0027576082872886585,
        "Eccentricity": 0.0,
        "Inclination(deg)": 45.0,
        "Latitude(deg)": 13.437843092684878,
        "Longitude(deg)": -61.41624782124933,
        "Mean Anomaly(deg)": 19.15585245149536,
        "RAAN(deg)": 24.997396898383805,
        "Satellite Name": "Constellation 1 111",
        "Satellite Number": 111,
        "Semi-Major Axis(m)": 7083131.272910544,
        "Time(s)": 46
    },
    {
        "Altitude(m)": 702684.8578756257,
        "Argument of Periapsis(deg)": 0.0028175562935340644,
        "Eccentricity": 0.0,
        "Inclination(deg)": 45.0,
        "Latitude(deg)": 13.479808994662314,
        "Longitude(deg)": -61.37504556188675,
        "Mean Anomaly(deg)": 19.216553591745253,
        "RAAN(deg)": 24.99734030921823,
        "Satellite Name": "Constellation 1 111",
        "Satellite Number": 111,
        "Semi-Major Axis(m)": 7083131.272910544,
        "Time(s)": 47
    },
    {
        "Altitude(m)": 702685.6029788574,
        "Argument of Periapsis(deg)": 0.00287750429977947,
        "Eccentricity": 0.0,
        "Inclination(deg)": 45.0,
        "Latitude(deg)": 13.52176661482033,
        "Longitude(deg)": -61.333827466635505,
        "Mean Anomaly(deg)": 19.277254731995164,
        "RAAN(deg)": 24.997283720052664,
        "Satellite Name": "Constellation 1 111",
        "Satellite Number": 111,
        "Semi-Major Axis(m)": 7083131.272910544,
        "Time(s)": 48
    },
    {
        "Altitude(m)": 702686.3662202967,
        "Argument of Periapsis(deg)": 0.002937452306024875,
        "Eccentricity": 0.0,
        "Inclination(deg)": 45.0,
        "Latitude(deg)": 13.563715923450264,
        "Longitude(deg)": -61.292593482090986,
        "Mean Anomaly(deg)": 19.337955872245058,
        "RAAN(deg)": 24.997227130887094,
        "Satellite Name": "Constellation 1 111",
        "Satellite Number": 111,
        "Semi-Major Axis(m)": 7083131.272910544,
        "Time(s)": 49
    },
    {
        "Altitude(m)": 702687.1475785195,
        "Argument of Periapsis(deg)": 0.0029974003122702807,
        "Eccentricity": 0.0,
        "Inclination(deg)": 45.0,
        "Latitude(deg)": 13.605656890812583,
        "Longitude(deg)": -61.251343554819584,
        "Mean Anomaly(deg)": 19.398657012494954,
        "RAAN(deg)": 24.997170541721527,
        "Satellite Name": "Constellation 1 111",
        "Satellite Number": 111,
        "Semi-Major Axis(m)": 7083131.272910544,
        "Time(s)": 50
    },
    {
        "Altitude(m)": 702687.9470320469,
        "Argument of Periapsis(deg)": 0.0030573483185156866,
        "Eccentricity": 0.0,
        "Inclination(deg)": 45.0,
        "Latitude(deg)": 13.64758948713672,
        "Longitude(deg)": -61.21007763135847,
        "Mean Anomaly(deg)": 19.45935815274485,
        "RAAN(deg)": 24.997113952555956,
        "Satellite Name": "Constellation 1 111",
        "Satellite Number": 111,
        "Semi-Major Axis(m)": 7083131.272910544,
        "Time(s)": 51
    },
    {
        "Altitude(m)": 702688.7645593119,
        "Argument of Periapsis(deg)": 0.003117296324761092,
        "Eccentricity": 0.0,
        "Inclination(deg)": 45.0,
        "Latitude(deg)": 13.689513682620847,
        "Longitude(deg)": -61.16879582631265,
        "Mean Anomaly(deg)": 19.52005929299475,
        "RAAN(deg)": 24.997057363390383,
        "Satellite Name": "Constellation 1 111",
        "Satellite Number": 111,
        "Semi-Major Axis(m)": 7083131.272910544,
        "Time(s)": 52
    },
    {
        "Altitude(m)": 702689.6001386727,
        "Argument of Periapsis(deg)": 0.0031772443310064975,
        "Eccentricity": 0.0,
        "Inclination(deg)": 45.0,
        "Latitude(deg)": 13.731429447432257,
        "Longitude(deg)": -61.127497749967,
        "Mean Anomaly(deg)": 19.580760433244656,
        "RAAN(deg)": 24.997000774224816,
        "Satellite Name": "Constellation 1 111",
        "Satellite Number": 111,
        "Semi-Major Axis(m)": 7083131.272910544,
        "Time(s)": 53
    },
    {
        "Altitude(m)": 702690.4537484214,
        "Argument of Periapsis(deg)": 0.0032371923372519038,
        "Eccentricity": 0.0,
        "Inclination(deg)": 45.0,
        "Latitude(deg)": 13.773336751706486,
        "Longitude(deg)": -61.08618351686804,
        "Mean Anomaly(deg)": 19.641461573494553,
        "RAAN(deg)": 24.99694418505925,
        "Satellite Name": "Constellation 1 111",
        "Satellite Number": 111,
        "Semi-Major Axis(m)": 7083131.272910544,
        "Time(s)": 54
    },
    {
        "Altitude(m)": 702691.3253667555,
        "Argument of Periapsis(deg)": 0.0032971403434973088,
        "Eccentricity": 0.0,
        "Inclination(deg)": 45.0,
        "Latitude(deg)": 13.81523556554781,
        "Longitude(deg)": -61.04485307343596,
        "Mean Anomaly(deg)": 19.702162713744457,
        "RAAN(deg)": 24.99688759589368,
        "Satellite Name": "Constellation 1 111",
        "Satellite Number": 111,
        "Semi-Major Axis(m)": 7083131.272910544,
        "Time(s)": 55
    },
    {
        "Altitude(m)": 702692.2149718273,
        "Argument of Periapsis(deg)": 0.0033570883497427146,
        "Eccentricity": 0.0,
        "Inclination(deg)": 45.0,
        "Latitude(deg)": 13.857125859028873,
        "Longitude(deg)": -61.003506366061664,
        "Mean Anomaly(deg)": 19.76286385399435,
        "RAAN(deg)": 24.99683100672811,
        "Satellite Name": "Constellation 1 111",
        "Satellite Number": 111,
        "Semi-Major Axis(m)": 7083131.272910544,
        "Time(s)": 56
    }
]